[
    {
        "Altitude(m)": 716660.6575059906,
        "Argument of Periapsis(deg)": 0.005695060593313534,
        "Eccentricity": 0.0,
        "Inclination(deg)": 45.0,
        "Latitude(deg)": -42.19154852333145,
        "Longitude(deg)": 108.99976928594945,
        "Mean Anomaly(deg)": -108.7788916762596,
        "RAAN(deg)": 324.9946240292709,
        "Satellite Name": "Constellation 1 1445",
        "Satellite Number": 1445,
        "Semi-Major Axis(m)": 7083131.272910544,
        "Time(s)": 95
    },
    {
        "Altitude(m)": 716668.3281229561,
        "Argument of Periapsis(deg)": 0.00575500859955894,
        "Eccentricity": 0.0,
        "Inclination(deg)": 45.0,
        "Latitude(deg)": -42.21008313410401,
        "Longitude(deg)": 109.07331082674017,
        "Mean Anomaly(deg)": -108.71819053600967,
        "RAAN(deg)": 324.9945674401053,
        "Satellite Name": "Constellation 1 1445",
        "Satellite Number": 1445,
        "Semi-Major Axis(m)": 7083131.272910544,
        "Time(s)": 96
    },
    {
        "Altitude(m)": 716675.9768089303,
        "Argument of Periapsis(deg)": 0.005814956605804345,
        "Eccentricity": 0.0,
        "Inclination(deg)": 45.0,
        "Latitude(deg)": -42.228565092216904,
        "Longitude(deg)": 109.1468977756179,
        "Mean Anomaly(deg)": -108.6574893957598,
        "RAAN(deg)": 324.9945108509398,
        "Satellite Name": "Constellation 1 1445",
        "Satellite Number": 1445,
        "Semi-Major Axis(m)": 7083131.272910544,
        "Time(s)": 97
    },
    {
        "Altitude(m)": 716683.6035358233,
        "Argument of Periapsis(deg)": 0.00587490461204975,
        "Eccentricity": 0.0,
        "Inclination(deg)": 45.0,
        "Latitude(deg)": -42.2469943337326,
        "Longitude(deg)": 109.22052989140535,
        "Mean Anomaly(deg)": -108.59678825550996,
        "RAAN(deg)": 324.9944542617742,
        "Satellite Name": "Constellation 1 1445",
        "Satellite Number": 1445,
        "Semi-Major Axis(m)": 7083131.272910544,
        "Time(s)": 98
    },
    {
        "Altitude(m)": 716691.2082756234,
        "Argument of Periapsis(deg)": 0.005934852618295156,
        "Eccentricity": 0.0,
        "Inclination(deg)": 45.0,
        "Latitude(deg)": -42.26537079480027,
        "Longitude(deg)": 109.29420710047263,
        "Mean Anomaly(deg)": -108.53608711525996,
        "RAAN(deg)": 324.99439767260856,
        "Satellite Name": "Constellation 1 1445",
        "Satellite Number": 1445,
        "Semi-Major Axis(m)": 7083131.272910544,
        "Time(s)": 99
    },
    {
        "Altitude(m)": 716698.7910004004,
        "Argument of Periapsis(deg)": 0.005994800624540561,
        "Eccentricity": 0.0,
        "Inclination(deg)": 45.0,
        "Latitude(deg)": -42.28369441165648,
        "Longitude(deg)": 109.36792932863959,
        "Mean Anomaly(deg)": -108.4753859750101,
        "RAAN(deg)": 324.99434108344303,
        "Satellite Name": "Constellation 1 1445",
        "Satellite Number": 1445,
        "Semi-Major Axis(m)": 7083131.272910544,
        "Time(s)": 100
    },
    {
        "Altitude(m)": 716706.3516823112,
        "Argument of Periapsis(deg)": 0.006054748630785968,
        "Eccentricity": 0.0,
        "Inclination(deg)": 45.0,
        "Latitude(deg)": -42.30196512062626,
        "Longitude(deg)": 109.4416965011759,
        "Mean Anomaly(deg)": -108.41468483476027,
        "RAAN(deg)": 324.99428449427745,
        "Satellite Name": "Constellation 1 1445",
        "Satellite Number": 1445,
        "Semi-Major Axis(m)": 7083131.272910544,
        "Time(s)": 101
    },
    {
        "Altitude(m)": 716713.8902935773,
        "Argument of Periapsis(deg)": 0.006114696637031373,
        "Eccentricity": 0.0,
        "Inclination(deg)": 45.0,
        "Latitude(deg)": -42.32018285812382,
        "Longitude(deg)": 109.51550854280056,
        "Mean Anomaly(deg)": -108.3539836945103,
        "RAAN(deg)": 324.9942279051119,
        "Satellite Name": "Constellation 1 1445",
        "Satellite Number": 1445,
        "Semi-Major Axis(m)": 7083131.272910544,
        "Time(s)": 102
    },
    {
        "Altitude(m)": 716721.406806516,
        "Argument of Periapsis(deg)": 0.006174644643276778,
        "Eccentricity": 0.0,
        "Inclination(deg)": 45.0,
        "Latitude(deg)": -42.33834756065344,
        "Longitude(deg)": 109.58936537768086,
        "Mean Anomaly(deg)": -108.29328255426047,
        "RAAN(deg)": 324.99417131594635,
        "Satellite Name": "Constellation 1 1445",
        "Satellite Number": 1445,
        "Semi-Major Axis(m)": 7083131.272910544,
        "Time(s)": 103
    },
    {
        "Altitude(m)": 716728.9011935118,
        "Argument of Periapsis(deg)": 0.006234592649522184,
        "Eccentricity": 0.0,
        "Inclination(deg)": 45.0,
        "Latitude(deg)": -42.356459164810275,
        "Longitude(deg)": 109.66326676133589,
        "Mean Anomaly(deg)": -108.23258141401055,
        "RAAN(deg)": 324.9941147267807,
        "Satellite Name": "Constellation 1 1445",
        "Satellite Number": 1445,
        "Semi-Major Axis(m)": 7083131.272910544,
        "Time(s)": 104
    },
    {
        "Altitude(m)": 716736.3734270348,
        "Argument of Periapsis(deg)": 0.00629454065576759,
        "Eccentricity": 0.0,
        "Inclination(deg)": 45.0,
        "Latitude(deg)": -42.374517607281454,
        "Longitude(deg)": 109.73721295302306,
        "Mean Anomaly(deg)": -108.17188027376062,
        "RAAN(deg)": 324.9940581376152,
        "Satellite Name": "Constellation 1 1445",
        "Satellite Number": 1445,
        "Semi-Major Axis(m)": 7083131.272910544,
        "Time(s)": 105
    },
    {
        "Altitude(m)": 716743.823479638,
        "Argument of Periapsis(deg)": 0.006354488662012995,
        "Eccentricity": 0.0,
        "Inclination(deg)": 45.0,
        "Latitude(deg)": -42.3925228248466,
        "Longitude(deg)": 109.81120370715678,
        "Mean Anomaly(deg)": -108.11117913351065,
        "RAAN(deg)": 324.9940015484496,
        "Satellite Name": "Constellation 1 1445",
        "Satellite Number": 1445,
        "Semi-Major Axis(m)": 7083131.272910544,
        "Time(s)": 106
    },
    {
        "Altitude(m)": 716751.2513239483,
        "Argument of Periapsis(deg)": 0.006414436668258401,
        "Eccentricity": 0.0,
        "Inclination(deg)": 45.0,
        "Latitude(deg)": -42.410474754378875,
        "Longitude(deg)": 109.8852389456952,
        "Mean Anomaly(deg)": -108.05047799326091,
        "RAAN(deg)": 324.9939449592841,
        "Satellite Name": "Constellation 1 1445",
        "Satellite Number": 1445,
        "Semi-Major Axis(m)": 7083131.272910544,
        "Time(s)": 107
    },
    {
        "Altitude(m)": 716758.6569326795,
        "Argument of Periapsis(deg)": 0.0064743846745038075,
        "Eccentricity": 0.0,
        "Inclination(deg)": 45.0,
        "Latitude(deg)": -42.42837333284595,
        "Longitude(deg)": 109.95931859004399,
        "Mean Anomaly(deg)": -107.98977685301097,
        "RAAN(deg)": 324.9938883701185,
        "Satellite Name": "Constellation 1 1445",
        "Satellite Number": 1445,
        "Semi-Major Axis(m)": 7083131.272910544,
        "Time(s)": 108
    },
    {
        "Altitude(m)": 716766.0402786158,
        "Argument of Periapsis(deg)": 0.0065343326807492125,
        "Eccentricity": 0.0,
        "Inclination(deg)": 45.0,
        "Latitude(deg)": -42.44621849731065,
        "Longitude(deg)": 110.03344256105449,
        "Mean Anomaly(deg)": -107.92907571276099,
        "RAAN(deg)": 324.993831780953,
        "Satellite Name": "Constellation 1 1445",
        "Satellite Number": 1445,
        "Semi-Major Axis(m)": 7083131.272910544,
        "Time(s)": 109
    },
    {
        "Altitude(m)": 716773.4013346344,
        "Argument of Periapsis(deg)": 0.0065942806869946176,
        "Eccentricity": 0.0,
        "Inclination(deg)": 45.0,
        "Latitude(deg)": -42.46401018493191,
        "Longitude(deg)": 110.10761077902406,
        "Mean Anomaly(deg)": -107.8683745725112,
        "RAAN(deg)": 324.99377519178734,
        "Satellite Name": "Constellation 1 1445",
        "Satellite Number": 1445,
        "Semi-Major Axis(m)": 7083131.272910544,
        "Time(s)": 110
    },
    {
        "Altitude(m)": 716780.7400736832,
        "Argument of Periapsis(deg)": 0.006654228693240024,
        "Eccentricity": 0.0,
        "Inclination(deg)": 45.0,
        "Latitude(deg)": -42.48174833296578,
        "Longitude(deg)": 110.1818229956,
        "Mean Anomaly(deg)": -107.80767343226124,
        "RAAN(deg)": 324.99371860262175,
        "Satellite Name": "Constellation 1 1445",
        "Satellite Number": 1445,
        "Semi-Major Axis(m)": 7083131.272910544,
        "Time(s)": 111
    },
    {
        "Altitude(m)": 716788.056468801,
        "Argument of Periapsis(deg)": 0.006714176699485429,
        "Eccentricity": 0.0,
        "Inclination(deg)": 45.0,
        "Latitude(deg)": -42.49943287876618,
        "Longitude(deg)": 110.25607946616437,
        "Mean Anomaly(deg)": -107.74697229201131,
        "RAAN(deg)": 324.99366201345623,
        "Satellite Name": "Constellation 1 1445",
        "Satellite Number": 1445,
        "Semi-Major Axis(m)": 7083131.272910544,
        "Time(s)": 112
    },
    {
        "Altitude(m)": 716795.3504930933,
        "Argument of Periapsis(deg)": 0.006774124705730835,
        "Eccentricity": 0.0,
        "Inclination(deg)": 45.0,
        "Latitude(deg)": -42.51706375978571,
        "Longitude(deg)": 110.33037994125449,
        "Mean Anomaly(deg)": -107.68627115176135,
        "RAAN(deg)": 324.99360542429065,
        "Satellite Name": "Constellation 1 1445",
        "Satellite Number": 1445,
        "Semi-Major Axis(m)": 7083131.272910544,
        "Time(s)": 113
    }
]